[{"OBJECT_NAME":"STARLINK-31718","OBJECT_ID":"2024-074Y","EPOCH":"2026-03-09T02:42:40.873248","MEAN_MOTION":15.27570812,"ECCENTRICITY":0.00014893,"INCLINATION":43.0002,"RA_OF_ASC_NODE":346.9961,"ARG_OF_PERICENTER":264.0794,"MEAN_ANOMALY":95.9888,"EPHEMERIS_TYPE":0,"CLASSIFICATION_TYPE":"U","NORAD_CAT_ID":59556,"ELEMENT_SET_NO":999,"REV_AT_EPOCH":10592,"BSTAR":-6.6303972e-5,"MEAN_MOTION_DOT":-2.086e-5,"MEAN_MOTION_DDOT":0},{"OBJECT_NAME":"FLOCK 4G-34","OBJECT_ID":"2025-009AT","EPOCH":"2026-03-09T17:34:06.952224","MEAN_MOTION":15.27131464,"ECCENTRICITY":6.743e-5,"INCLINATION":97.4004,"RA_OF_ASC_NODE":151.0149,"ARG_OF_PERICENTER":348.828,"MEAN_ANOMALY":11.2944,"EPHEMERIS_TYPE":0,"CLASSIFICATION_TYPE":"U","NORAD_CAT_ID":62650,"ELEMENT_SET_NO":999,"REV_AT_EPOCH":6372,"BSTAR":0.00049338357,"MEAN_MOTION_DOT":0.00013063,"MEAN_MOTION_DDOT":0}]
